ORBCOMM FM103 [+]       
1 40091U 14040F   24064.06259793  .00001229  00000+0  31211-3 0  9994
2 40091  47.0057  74.8558 0002870 282.2270  77.8293 14.56347152512592
ORBCOMM FM114 [+]       
1 41179U 15081A   24063.82242689  .00001094  00000+0  28183-3 0  9991
2 41179  47.0042 345.2954 0001954 336.9484  23.1313 14.56345047435867
ORBCOMM FM119 [-]       
1 41180U 15081B   24063.65416751  .00000861  00000+0  22986-3 0  9993
2 41180  46.9994 255.2753 0000859  44.9316 315.1638 14.56335259437098
ORBCOMM FM105 [-]       
1 41181U 15081C   24063.82012530  .00000483  00000+0  18458-3 0  9999
2 41181  47.0000 215.2471 0001550 354.4673   5.6190 14.44255053432736
ORBCOMM FM110 [+]       
1 41182U 15081D   24064.14244793  .00001843  00000+0  44921-3 0  9999
2 41182  47.0032 343.2023 0001308 194.7839 165.3008 14.56346557435960
ORBCOMM FM118 [+]       
1 41183U 15081E   24064.18831377  .00001343  00000+0  33725-3 0  9999
2 41183  47.0056 343.2762 0001549 187.9340 172.1520 14.56365435435977
ORBCOMM FM112 [+]       
1 41184U 15081F   24063.63211770  .00001017  00000+0  26465-3 0  9999
2 41184  46.9975 254.6133 0000629  13.3651 346.7250 14.56327441437031
ORBCOMM FM113 [+]       
1 41185U 15081G   24063.60916335  .00001190  00000+0  30329-3 0  9992
2 41185  46.9993 254.9760 0000314  55.1625 304.9289 14.56325897437016
