<?xml version="1.0" encoding="UTF-8"?>
<ndm xmlns:xsi="http://www.w3.org/2001/XMLSchema-instance" xsi:noNamespaceSchemaLocation="https://sanaregistry.org/r/ndmxml_unqualified/ndmxml-2.0.0-master-2.0.xsd">
<omm id="CCSDS_OMM_VERS" version="2.0">
<header><CREATION_DATE/><ORIGINATOR/></header><body><segment><metadata><OBJECT_NAME>ORBCOMM FM103 [+]</OBJECT_NAME><OBJECT_ID>2014-040F</OBJECT_ID><CENTER_NAME>EARTH</CENTER_NAME><REF_FRAME>TEME</REF_FRAME><TIME_SYSTEM>UTC</TIME_SYSTEM><MEAN_ELEMENT_THEORY>SGP4</MEAN_ELEMENT_THEORY></metadata><data><meanElements><EPOCH>2024-03-04T01:30:08.461152</EPOCH><MEAN_MOTION>14.56347152</MEAN_MOTION><ECCENTRICITY>.000287</ECCENTRICITY><INCLINATION>47.0057</INCLINATION><RA_OF_ASC_NODE>74.8558</RA_OF_ASC_NODE><ARG_OF_PERICENTER>282.2270</ARG_OF_PERICENTER><MEAN_ANOMALY>77.8293</MEAN_ANOMALY></meanElements><tleParameters><EPHEMERIS_TYPE>0</EPHEMERIS_TYPE><CLASSIFICATION_TYPE>U</CLASSIFICATION_TYPE><NORAD_CAT_ID>40091</NORAD_CAT_ID><ELEMENT_SET_NO>999</ELEMENT_SET_NO><REV_AT_EPOCH>51259</REV_AT_EPOCH><BSTAR>.31211E-3</BSTAR><MEAN_MOTION_DOT>.1229E-4</MEAN_MOTION_DOT><MEAN_MOTION_DDOT>0</MEAN_MOTION_DDOT></tleParameters></data></segment></body></omm>
<omm id="CCSDS_OMM_VERS" version="2.0">
<header><CREATION_DATE/><ORIGINATOR/></header><body><segment><metadata><OBJECT_NAME>ORBCOMM FM114 [+]</OBJECT_NAME><OBJECT_ID>2015-081A</OBJECT_ID><CENTER_NAME>EARTH</CENTER_NAME><REF_FRAME>TEME</REF_FRAME><TIME_SYSTEM>UTC</TIME_SYSTEM><MEAN_ELEMENT_THEORY>SGP4</MEAN_ELEMENT_THEORY></metadata><data><meanElements><EPOCH>2024-03-03T19:44:17.683296</EPOCH><MEAN_MOTION>14.56345047</MEAN_MOTION><ECCENTRICITY>.0001954</ECCENTRICITY><INCLINATION>47.0042</INCLINATION><RA_OF_ASC_NODE>345.2954</RA_OF_ASC_NODE><ARG_OF_PERICENTER>336.9484</ARG_OF_PERICENTER><MEAN_ANOMALY>23.1313</MEAN_ANOMALY></meanElements><tleParameters><EPHEMERIS_TYPE>0</EPHEMERIS_TYPE><CLASSIFICATION_TYPE>U</CLASSIFICATION_TYPE><NORAD_CAT_ID>41179</NORAD_CAT_ID><ELEMENT_SET_NO>999</ELEMENT_SET_NO><REV_AT_EPOCH>43586</REV_AT_EPOCH><BSTAR>.28183E-3</BSTAR><MEAN_MOTION_DOT>.1094E-4</MEAN_MOTION_DOT><MEAN_MOTION_DDOT>0</MEAN_MOTION_DDOT></tleParameters></data></segment></body></omm>
<omm id="CCSDS_OMM_VERS" version="2.0">
<header><CREATION_DATE/><ORIGINATOR/></header><body><segment><metadata><OBJECT_NAME>ORBCOMM FM119 [-]</OBJECT_NAME><OBJECT_ID>2015-081B</OBJECT_ID><CENTER_NAME>EARTH</CENTER_NAME><REF_FRAME>TEME</REF_FRAME><TIME_SYSTEM>UTC</TIME_SYSTEM><MEAN_ELEMENT_THEORY>SGP4</MEAN_ELEMENT_THEORY></metadata><data><meanElements><EPOCH>2024-03-03T15:42:00.072864</EPOCH><MEAN_MOTION>14.56335259</MEAN_MOTION><ECCENTRICITY>.0000859</ECCENTRICITY><INCLINATION>46.9994</INCLINATION><RA_OF_ASC_NODE>255.2753</RA_OF_ASC_NODE><ARG_OF_PERICENTER>44.9316</ARG_OF_PERICENTER><MEAN_ANOMALY>315.1638</MEAN_ANOMALY></meanElements><tleParameters><EPHEMERIS_TYPE>0</EPHEMERIS_TYPE><CLASSIFICATION_TYPE>U</CLASSIFICATION_TYPE><NORAD_CAT_ID>41180</NORAD_CAT_ID><ELEMENT_SET_NO>999</ELEMENT_SET_NO><REV_AT_EPOCH>43709</REV_AT_EPOCH><BSTAR>.22986E-3</BSTAR><MEAN_MOTION_DOT>.861E-5</MEAN_MOTION_DOT><MEAN_MOTION_DDOT>0</MEAN_MOTION_DDOT></tleParameters></data></segment></body></omm>
<omm id="CCSDS_OMM_VERS" version="2.0">
<header><CREATION_DATE/><ORIGINATOR/></header><body><segment><metadata><OBJECT_NAME>ORBCOMM FM105 [-]</OBJECT_NAME><OBJECT_ID>2015-081C</OBJECT_ID><CENTER_NAME>EARTH</CENTER_NAME><REF_FRAME>TEME</REF_FRAME><TIME_SYSTEM>UTC</TIME_SYSTEM><MEAN_ELEMENT_THEORY>SGP4</MEAN_ELEMENT_THEORY></metadata><data><meanElements><EPOCH>2024-03-03T19:40:58.825920</EPOCH><MEAN_MOTION>14.44255053</MEAN_MOTION><ECCENTRICITY>.000155</ECCENTRICITY><INCLINATION>47.0000</INCLINATION><RA_OF_ASC_NODE>215.2471</RA_OF_ASC_NODE><ARG_OF_PERICENTER>354.4673</ARG_OF_PERICENTER><MEAN_ANOMALY>5.6190</MEAN_ANOMALY></meanElements><tleParameters><EPHEMERIS_TYPE>0</EPHEMERIS_TYPE><CLASSIFICATION_TYPE>U</CLASSIFICATION_TYPE><NORAD_CAT_ID>41181</NORAD_CAT_ID><ELEMENT_SET_NO>999</ELEMENT_SET_NO><REV_AT_EPOCH>43273</REV_AT_EPOCH><BSTAR>.18458E-3</BSTAR><MEAN_MOTION_DOT>.483E-5</MEAN_MOTION_DOT><MEAN_MOTION_DDOT>0</MEAN_MOTION_DDOT></tleParameters></data></segment></body></omm>
<omm id="CCSDS_OMM_VERS" version="2.0">
<header><CREATION_DATE/><ORIGINATOR/></header><body><segment><metadata><OBJECT_NAME>ORBCOMM FM110 [+]</OBJECT_NAME><OBJECT_ID>2015-081D</OBJECT_ID><CENTER_NAME>EARTH</CENTER_NAME><REF_FRAME>TEME</REF_FRAME><TIME_SYSTEM>UTC</TIME_SYSTEM><MEAN_ELEMENT_THEORY>SGP4</MEAN_ELEMENT_THEORY></metadata><data><meanElements><EPOCH>2024-03-04T03:25:07.501152</EPOCH><MEAN_MOTION>14.56346557</MEAN_MOTION><ECCENTRICITY>.0001308</ECCENTRICITY><INCLINATION>47.0032</INCLINATION><RA_OF_ASC_NODE>343.2023</RA_OF_ASC_NODE><ARG_OF_PERICENTER>194.7839</ARG_OF_PERICENTER><MEAN_ANOMALY>165.3008</MEAN_ANOMALY></meanElements><tleParameters><EPHEMERIS_TYPE>0</EPHEMERIS_TYPE><CLASSIFICATION_TYPE>U</CLASSIFICATION_TYPE><NORAD_CAT_ID>41182</NORAD_CAT_ID><ELEMENT_SET_NO>999</ELEMENT_SET_NO><REV_AT_EPOCH>43596</REV_AT_EPOCH><BSTAR>.44921E-3</BSTAR><MEAN_MOTION_DOT>.1843E-4</MEAN_MOTION_DOT><MEAN_MOTION_DDOT>0</MEAN_MOTION_DDOT></tleParameters></data></segment></body></omm>
<omm id="CCSDS_OMM_VERS" version="2.0">
<header><CREATION_DATE/><ORIGINATOR/></header><body><segment><metadata><OBJECT_NAME>ORBCOMM FM118 [+]</OBJECT_NAME><OBJECT_ID>2015-081E</OBJECT_ID><CENTER_NAME>EARTH</CENTER_NAME><REF_FRAME>TEME</REF_FRAME><TIME_SYSTEM>UTC</TIME_SYSTEM><MEAN_ELEMENT_THEORY>SGP4</MEAN_ELEMENT_THEORY></metadata><data><meanElements><EPOCH>2024-03-04T04:31:10.309728</EPOCH><MEAN_MOTION>14.56365435</MEAN_MOTION><ECCENTRICITY>.0001549</ECCENTRICITY><INCLINATION>47.0056</INCLINATION><RA_OF_ASC_NODE>343.2762</RA_OF_ASC_NODE><ARG_OF_PERICENTER>187.9340</ARG_OF_PERICENTER><MEAN_ANOMALY>172.1520</MEAN_ANOMALY></meanElements><tleParameters><EPHEMERIS_TYPE>0</EPHEMERIS_TYPE><CLASSIFICATION_TYPE>U</CLASSIFICATION_TYPE><NORAD_CAT_ID>41183</NORAD_CAT_ID><ELEMENT_SET_NO>999</ELEMENT_SET_NO><REV_AT_EPOCH>43597</REV_AT_EPOCH><BSTAR>.33725E-3</BSTAR><MEAN_MOTION_DOT>.1343E-4</MEAN_MOTION_DOT><MEAN_MOTION_DDOT>0</MEAN_MOTION_DDOT></tleParameters></data></segment></body></omm>
<omm id="CCSDS_OMM_VERS" version="2.0">
<header><CREATION_DATE/><ORIGINATOR/></header><body><segment><metadata><OBJECT_NAME>ORBCOMM FM112 [+]</OBJECT_NAME><OBJECT_ID>2015-081F</OBJECT_ID><CENTER_NAME>EARTH</CENTER_NAME><REF_FRAME>TEME</REF_FRAME><TIME_SYSTEM>UTC</TIME_SYSTEM><MEAN_ELEMENT_THEORY>SGP4</MEAN_ELEMENT_THEORY></metadata><data><meanElements><EPOCH>2024-03-03T15:10:14.969280</EPOCH><MEAN_MOTION>14.56327441</MEAN_MOTION><ECCENTRICITY>.0000629</ECCENTRICITY><INCLINATION>46.9975</INCLINATION><RA_OF_ASC_NODE>254.6133</RA_OF_ASC_NODE><ARG_OF_PERICENTER>13.3651</ARG_OF_PERICENTER><MEAN_ANOMALY>346.7250</MEAN_ANOMALY></meanElements><tleParameters><EPHEMERIS_TYPE>0</EPHEMERIS_TYPE><CLASSIFICATION_TYPE>U</CLASSIFICATION_TYPE><NORAD_CAT_ID>41184</NORAD_CAT_ID><ELEMENT_SET_NO>999</ELEMENT_SET_NO><REV_AT_EPOCH>43703</REV_AT_EPOCH><BSTAR>.26465E-3</BSTAR><MEAN_MOTION_DOT>.1017E-4</MEAN_MOTION_DOT><MEAN_MOTION_DDOT>0</MEAN_MOTION_DDOT></tleParameters></data></segment></body></omm>
<omm id="CCSDS_OMM_VERS" version="2.0">
<header><CREATION_DATE/><ORIGINATOR/></header><body><segment><metadata><OBJECT_NAME>ORBCOMM FM113 [+]</OBJECT_NAME><OBJECT_ID>2015-081G</OBJECT_ID><CENTER_NAME>EARTH</CENTER_NAME><REF_FRAME>TEME</REF_FRAME><TIME_SYSTEM>UTC</TIME_SYSTEM><MEAN_ELEMENT_THEORY>SGP4</MEAN_ELEMENT_THEORY></metadata><data><meanElements><EPOCH>2024-03-03T14:37:11.713440</EPOCH><MEAN_MOTION>14.56325897</MEAN_MOTION><ECCENTRICITY>.0000314</ECCENTRICITY><INCLINATION>46.9993</INCLINATION><RA_OF_ASC_NODE>254.9760</RA_OF_ASC_NODE><ARG_OF_PERICENTER>55.1625</ARG_OF_PERICENTER><MEAN_ANOMALY>304.9289</MEAN_ANOMALY></meanElements><tleParameters><EPHEMERIS_TYPE>0</EPHEMERIS_TYPE><CLASSIFICATION_TYPE>U</CLASSIFICATION_TYPE><NORAD_CAT_ID>41185</NORAD_CAT_ID><ELEMENT_SET_NO>999</ELEMENT_SET_NO><REV_AT_EPOCH>43701</REV_AT_EPOCH><BSTAR>.30329E-3</BSTAR><MEAN_MOTION_DOT>.119E-4</MEAN_MOTION_DOT><MEAN_MOTION_DDOT>0</MEAN_MOTION_DDOT></tleParameters></data></segment></body></omm>

</ndm>
